[{"OBJECT_NAME":"ONEWEB-0264","OBJECT_ID":"2021-060R","EPOCH":"2026-02-03T03:00:57.430080","MEAN_MOTION":13.16593852,"ECCENTRICITY":0.00013151,"INCLINATION":87.9011,"RA_OF_ASC_NODE":255.4721,"ARG_OF_PERICENTER":79.6456,"MEAN_ANOMALY":280.4823,"EPHEMERIS_TYPE":0,"CLASSIFICATION_TYPE":"U","NORAD_CAT_ID":48982,"ELEMENT_SET_NO":999,"REV_AT_EPOCH":22195,"BSTAR":0.00015826188,"MEAN_MOTION_DOT":7.3e-7,"MEAN_MOTION_DDOT":0},{"OBJECT_NAME":"ONEWEB-0266","OBJECT_ID":"2021-060T","EPOCH":"2026-02-03T03:31:44.214528","MEAN_MOTION":13.16593833,"ECCENTRICITY":0.00016012,"INCLINATION":87.901,"RA_OF_ASC_NODE":255.4573,"ARG_OF_PERICENTER":91.3709,"MEAN_ANOMALY":268.7606,"EPHEMERIS_TYPE":0,"CLASSIFICATION_TYPE":"U","NORAD_CAT_ID":48984,"ELEMENT_SET_NO":999,"REV_AT_EPOCH":22194,"BSTAR":0.00020788273,"MEAN_MOTION_DOT":9.2e-7,"MEAN_MOTION_DDOT":0},{"OBJECT_NAME":"ONEWEB-0267","OBJECT_ID":"2021-060U","EPOCH":"2026-02-03T03:47:41.088480","MEAN_MOTION":13.1659464,"ECCENTRICITY":0.00012929,"INCLINATION":87.9009,"RA_OF_ASC_NODE":255.4518,"ARG_OF_PERICENTER":85.2636,"MEAN_ANOMALY":274.8642,"EPHEMERIS_TYPE":0,"CLASSIFICATION_TYPE":"U","NORAD_CAT_ID":48985,"ELEMENT_SET_NO":999,"REV_AT_EPOCH":22195,"BSTAR":0.00026444837,"MEAN_MOTION_DOT":1.14e-6,"MEAN_MOTION_DDOT":0},{"OBJECT_NAME":"ONEWEB-0268","OBJECT_ID":"2021-060V","EPOCH":"2026-02-03T03:02:05.523648","MEAN_MOTION":13.16593493,"ECCENTRICITY":0.00014726,"INCLINATION":87.9007,"RA_OF_ASC_NODE":255.4681,"ARG_OF_PERICENTER":83.5385,"MEAN_ANOMALY":276.5914,"EPHEMERIS_TYPE":0,"CLASSIFICATION_TYPE":"U","NORAD_CAT_ID":48986,"ELEMENT_SET_NO":999,"REV_AT_EPOCH":22221,"BSTAR":0.00038504145,"MEAN_MOTION_DOT":1.6e-6,"MEAN_MOTION_DDOT":0},{"OBJECT_NAME":"ONEWEB-0269","OBJECT_ID":"2021-060W","EPOCH":"2026-02-03T02:34:43.509792","MEAN_MOTION":13.16594038,"ECCENTRICITY":0.00016507,"INCLINATION":87.8998,"RA_OF_ASC_NODE":255.4887,"ARG_OF_PERICENTER":81.002,"MEAN_ANOMALY":279.1298,"EPHEMERIS_TYPE":0,"CLASSIFICATION_TYPE":"U","NORAD_CAT_ID":48987,"ELEMENT_SET_NO":999,"REV_AT_EPOCH":22198,"BSTAR":5.3720863e-5,"MEAN_MOTION_DOT":3.3e-7,"MEAN_MOTION_DDOT":0},{"OBJECT_NAME":"ONEWEB-0270","OBJECT_ID":"2021-060X","EPOCH":"2026-02-03T02:59:49.205184","MEAN_MOTION":13.16593809,"ECCENTRICITY":0.00012178,"INCLINATION":87.9006,"RA_OF_ASC_NODE":255.47,"ARG_OF_PERICENTER":101.5865,"MEAN_ANOMALY":258.5403,"EPHEMERIS_TYPE":0,"CLASSIFICATION_TYPE":"U","NORAD_CAT_ID":48988,"ELEMENT_SET_NO":999,"REV_AT_EPOCH":22202,"BSTAR":9.553198e-5,"MEAN_MOTION_DOT":4.9e-7,"MEAN_MOTION_DDOT":0},{"OBJECT_NAME":"ONEWEB-0271","OBJECT_ID":"2021-060Y","EPOCH":"2026-02-03T02:41:33.873504","MEAN_MOTION":13.16591037,"ECCENTRICITY":0.00012332,"INCLINATION":87.901,"RA_OF_ASC_NODE":255.4628,"ARG_OF_PERICENTER":88.7504,"MEAN_ANOMALY":271.3769,"EPHEMERIS_TYPE":0,"CLASSIFICATION_TYPE":"U","NORAD_CAT_ID":48989,"ELEMENT_SET_NO":999,"REV_AT_EPOCH":22202,"BSTAR":0.00013727412,"MEAN_MOTION_DOT":6.5e-7,"MEAN_MOTION_DDOT":0},{"OBJECT_NAME":"ONEWEB-0272","OBJECT_ID":"2021-060Z","EPOCH":"2026-02-03T03:13:29.637120","MEAN_MOTION":13.16594142,"ECCENTRICITY":0.00013285,"INCLINATION":87.9006,"RA_OF_ASC_NODE":255.4704,"ARG_OF_PERICENTER":79.3933,"MEAN_ANOMALY":280.7347,"EPHEMERIS_TYPE":0,"CLASSIFICATION_TYPE":"U","NORAD_CAT_ID":48990,"ELEMENT_SET_NO":999,"REV_AT_EPOCH":22197,"BSTAR":0.0001796591,"MEAN_MOTION_DOT":8.2e-7,"MEAN_MOTION_DDOT":0},{"OBJECT_NAME":"ONEWEB-0273","OBJECT_ID":"2021-060AA","EPOCH":"2026-02-03T03:45:24.942816","MEAN_MOTION":13.16594607,"ECCENTRICITY":0.00013427,"INCLINATION":87.9011,"RA_OF_ASC_NODE":255.4638,"ARG_OF_PERICENTER":89.0636,"MEAN_ANOMALY":271.0648,"EPHEMERIS_TYPE":0,"CLASSIFICATION_TYPE":"U","NORAD_CAT_ID":48991,"ELEMENT_SET_NO":999,"REV_AT_EPOCH":22195,"BSTAR":0.00034242711,"MEAN_MOTION_DOT":1.44e-6,"MEAN_MOTION_DDOT":0},{"OBJECT_NAME":"ONEWEB-0274","OBJECT_ID":"2021-060AB","EPOCH":"2026-02-03T02:32:27.353760","MEAN_MOTION":13.16594092,"ECCENTRICITY":0.00014614,"INCLINATION":87.8998,"RA_OF_ASC_NODE":255.491,"ARG_OF_PERICENTER":72.3918,"MEAN_ANOMALY":287.7372,"EPHEMERIS_TYPE":0,"CLASSIFICATION_TYPE":"U","NORAD_CAT_ID":48992,"ELEMENT_SET_NO":999,"REV_AT_EPOCH":22198,"BSTAR":0.00015962604,"MEAN_MOTION_DOT":7.4e-7,"MEAN_MOTION_DDOT":0},{"OBJECT_NAME":"ONEWEB-0275","OBJECT_ID":"2021-060AC","EPOCH":"2026-02-03T04:05:55.681440","MEAN_MOTION":13.1659433,"ECCENTRICITY":0.00014572,"INCLINATION":87.9013,"RA_OF_ASC_NODE":255.4534,"ARG_OF_PERICENTER":82.405,"MEAN_ANOMALY":277.7247,"EPHEMERIS_TYPE":0,"CLASSIFICATION_TYPE":"U","NORAD_CAT_ID":48993,"ELEMENT_SET_NO":999,"REV_AT_EPOCH":22192,"BSTAR":3.7240577e-5,"MEAN_MOTION_DOT":2.7e-7,"MEAN_MOTION_DDOT":0},{"OBJECT_NAME":"ONEWEB-0276","OBJECT_ID":"2021-060AD","EPOCH":"2026-02-03T03:04:22.898784","MEAN_MOTION":13.16593874,"ECCENTRICITY":0.0001479,"INCLINATION":87.9008,"RA_OF_ASC_NODE":255.4624,"ARG_OF_PERICENTER":93.9904,"MEAN_ANOMALY":266.1396,"EPHEMERIS_TYPE":0,"CLASSIFICATION_TYPE":"U","NORAD_CAT_ID":48994,"ELEMENT_SET_NO":999,"REV_AT_EPOCH":22193,"BSTAR":0.00039540735,"MEAN_MOTION_DOT":1.64e-6,"MEAN_MOTION_DDOT":0},{"OBJECT_NAME":"ONEWEB-0277","OBJECT_ID":"2021-060AE","EPOCH":"2026-02-03T03:22:36.877440","MEAN_MOTION":13.16595976,"ECCENTRICITY":0.00013493,"INCLINATION":87.8999,"RA_OF_ASC_NODE":255.4788,"ARG_OF_PERICENTER":89.9557,"MEAN_ANOMALY":270.1729,"EPHEMERIS_TYPE":0,"CLASSIFICATION_TYPE":"U","NORAD_CAT_ID":48995,"ELEMENT_SET_NO":999,"REV_AT_EPOCH":22192,"BSTAR":0.00042430828,"MEAN_MOTION_DOT":1.75e-6,"MEAN_MOTION_DDOT":0},{"OBJECT_NAME":"ONEWEB-0278","OBJECT_ID":"2021-060AF","EPOCH":"2026-02-03T01:19:30.008352","MEAN_MOTION":13.16593934,"ECCENTRICITY":0.0001699,"INCLINATION":87.9009,"RA_OF_ASC_NODE":255.4734,"ARG_OF_PERICENTER":90.598,"MEAN_ANOMALY":269.5345,"EPHEMERIS_TYPE":0,"CLASSIFICATION_TYPE":"U","NORAD_CAT_ID":48996,"ELEMENT_SET_NO":999,"REV_AT_EPOCH":22204,"BSTAR":0.00037451,"MEAN_MOTION_DOT":1.56e-6,"MEAN_MOTION_DDOT":0},{"OBJECT_NAME":"ONEWEB-0279","OBJECT_ID":"2021-060AG","EPOCH":"2026-02-03T03:20:19.600800","MEAN_MOTION":13.16593995,"ECCENTRICITY":0.00012155,"INCLINATION":87.9011,"RA_OF_ASC_NODE":255.4557,"ARG_OF_PERICENTER":83.5666,"MEAN_ANOMALY":276.5603,"EPHEMERIS_TYPE":0,"CLASSIFICATION_TYPE":"U","NORAD_CAT_ID":48997,"ELEMENT_SET_NO":999,"REV_AT_EPOCH":22198,"BSTAR":0.00027946956,"MEAN_MOTION_DOT":1.2e-6,"MEAN_MOTION_DDOT":0},{"OBJECT_NAME":"ONEWEB-0280","OBJECT_ID":"2021-060AH","EPOCH":"2026-02-03T07:20:51.275328","MEAN_MOTION":13.16596115,"ECCENTRICITY":0.00014749,"INCLINATION":87.9011,"RA_OF_ASC_NODE":255.4275,"ARG_OF_PERICENTER":100.3202,"MEAN_ANOMALY":259.8095,"EPHEMERIS_TYPE":0,"CLASSIFICATION_TYPE":"U","NORAD_CAT_ID":48998,"ELEMENT_SET_NO":999,"REV_AT_EPOCH":22194,"BSTAR":0.00030806147,"MEAN_MOTION_DOT":1.31e-6,"MEAN_MOTION_DDOT":0},{"OBJECT_NAME":"ONEWEB-0281","OBJECT_ID":"2021-060AJ","EPOCH":"2026-02-03T03:49:58.556928","MEAN_MOTION":13.16594952,"ECCENTRICITY":0.00015423,"INCLINATION":87.9012,"RA_OF_ASC_NODE":255.4512,"ARG_OF_PERICENTER":82.7865,"MEAN_ANOMALY":277.3441,"EPHEMERIS_TYPE":0,"CLASSIFICATION_TYPE":"U","NORAD_CAT_ID":48999,"ELEMENT_SET_NO":999,"REV_AT_EPOCH":22199,"BSTAR":-6.1834274e-5,"MEAN_MOTION_DOT":-1.1e-7,"MEAN_MOTION_DDOT":0}]
