ONEWEB-0264             
1 48982U 21060R   26034.12566470  .00000073  00000+0  15826-3 0  9990
2 48982  87.9011 255.4721 0001315  79.6456 280.4823 13.16593852221951
ONEWEB-0266             
1 48984U 21060T   26034.14703952  .00000092  00000+0  20788-3 0  9996
2 48984  87.9010 255.4573 0001601  91.3709 268.7606 13.16593833221943
ONEWEB-0267             
1 48985U 21060U   26034.15811445  .00000114  00000+0  26445-3 0  9996
2 48985  87.9009 255.4518 0001292  85.2636 274.8642 13.16594640221954
ONEWEB-0268             
1 48986U 21060V   26034.12645282  .00000160  00000+0  38504-3 0  9998
2 48986  87.9007 255.4681 0001472  83.5385 276.5914 13.16593493222212
ONEWEB-0269             
1 48987U 21060W   26034.10744803  .00000033  00000+0  53721-4 0  9994
2 48987  87.8998 255.4887 0001650  81.0020 279.1298 13.16594038221989
ONEWEB-0270             
1 48988U 21060X   26034.12487506  .00000049  00000+0  95532-4 0  9994
2 48988  87.9006 255.4700 0001217 101.5865 258.5403 13.16593809222029
ONEWEB-0271             
1 48989U 21060Y   26034.11219761  .00000065  00000+0  13727-3 0  9993
2 48989  87.9010 255.4628 0001233  88.7504 271.3769 13.16591037222027
ONEWEB-0272             
1 48990U 21060Z   26034.13437080  .00000082  00000+0  17966-3 0  9991
2 48990  87.9006 255.4704 0001328  79.3933 280.7347 13.16594142221975
ONEWEB-0273             
1 48991U 21060AA  26034.15653869  .00000144  00000+0  34243-3 0  9995
2 48991  87.9011 255.4638 0001342  89.0636 271.0648 13.16594607221953
ONEWEB-0274             
1 48992U 21060AB  26034.10587215  .00000074  00000+0  15963-3 0  9992
2 48992  87.8998 255.4910 0001461  72.3918 287.7372 13.16594092221989
ONEWEB-0275             
1 48993U 21060AC  26034.17078335  .00000027  00000+0  37241-4 0  9990
2 48993  87.9013 255.4534 0001457  82.4050 277.7247 13.16594330221924
ONEWEB-0276             
1 48994U 21060AD  26034.12804281  .00000164  00000+0  39541-3 0  9999
2 48994  87.9008 255.4624 0001479  93.9904 266.1396 13.16593874221938
ONEWEB-0277             
1 48995U 21060AE  26034.14070460  .00000175  00000+0  42431-3 0  9990
2 48995  87.8999 255.4788 0001349  89.9557 270.1729 13.16595976221922
ONEWEB-0278             
1 48996U 21060AF  26034.05520843  .00000156  00000+0  37451-3 0  9991
2 48996  87.9009 255.4734 0001699  90.5980 269.5345 13.16593934222045
ONEWEB-0279             
1 48997U 21060AG  26034.13911575  .00000120  00000+0  27947-3 0  9997
2 48997  87.9011 255.4557 0001215  83.5666 276.5603 13.16593995221983
ONEWEB-0280             
1 48998U 21060AH  26034.30614902  .00000131  00000+0  30806-3 0  9991
2 48998  87.9011 255.4275 0001474 100.3202 259.8095 13.16596115221944
ONEWEB-0281             
1 48999U 21060AJ  26034.15970552 -.00000011  00000+0 -61834-4 0  9996
2 48999  87.9012 255.4512 0001542  82.7865 277.3441 13.16594952221996
